{
  "norad_id": 63643,
  "name": "STARLINK-33558",
  "history": [
    {
      "epoch": "2026-03-28T20:56:01.257792Z",
      "apogee_km": 484.02937872387974,
      "perigee_km": 481.94373438515777,
      "latitude_deg": -5.08509615444815e-05,
      "longitude_deg": 116.32685325793423,
      "height_km": 482.50767683828883,
      "semi_major_axis_km": 6861.1235565545185,
      "eccentricity": 0.00015199,
      "inclination_deg": 43.0019,
      "raan_deg": 256.6186,
      "arg_perigee_deg": 284.2046,
      "mean_anomaly_deg": 75.8636,
      "mean_motion_rev_day": 15.27600886
    }
  ]
}